RAMSAT                  
1 48850U 98067SL  21209.80140478  .00009222  00000-0  16828-3 0  9994
2 48850  51.6420 136.5934 0003486 300.1063  59.9580 15.50185026  6926
SOAR                    
1 48851U 98067SM  21209.20765873  .00023685  00000-0  40489-3 0  9990
2 48851  51.6405 139.3762 0002718 292.1167  67.9534 15.51153396  6870
BD-28                   
1 48867U 98067SN  21209.02843009  .00008649  00000-0  15756-3 0  9997
2 48867  51.6424 140.4318 0002622 342.2434  17.8463 15.50324159  5551
MIR-SAT 1               
1 48868U 98067SP  21209.03147561  .00015022  00000-0  26699-3 0  9990
2 48868  51.6420 140.4519 0001801 303.7462  56.3355 15.50391773  5589
